[{"OBJECT_NAME":"HUANJING 1A (HJ-1A)","OBJECT_ID":"2008-041A","EPOCH":"2026-03-09T23:20:18.926592","MEAN_MOTION":14.83722198,"ECCENTRICITY":0.00205789,"INCLINATION":97.6638,"RA_OF_ASC_NODE":58.6973,"ARG_OF_PERICENTER":102.9318,"MEAN_ANOMALY":257.4197,"EPHEMERIS_TYPE":0,"CLASSIFICATION_TYPE":"U","NORAD_CAT_ID":33320,"ELEMENT_SET_NO":999,"REV_AT_EPOCH":94369,"BSTAR":0.0003142853,"MEAN_MOTION_DOT":2.557e-5,"MEAN_MOTION_DDOT":0},{"OBJECT_NAME":"AETHER-7","OBJECT_ID":"2026-004R","EPOCH":"2026-03-09T23:38:02.128704","MEAN_MOTION":14.87800631,"ECCENTRICITY":0.00064671,"INCLINATION":97.8004,"RA_OF_ASC_NODE":69.1783,"ARG_OF_PERICENTER":100.8073,"MEAN_ANOMALY":259.3872,"EPHEMERIS_TYPE":0,"CLASSIFICATION_TYPE":"U","NORAD_CAT_ID":67378,"ELEMENT_SET_NO":999,"REV_AT_EPOCH":853,"BSTAR":0.00014118704,"MEAN_MOTION_DOT":1.235e-5,"MEAN_MOTION_DDOT":0}]
